[{"OBJECT_NAME":"TDRS 3","OBJECT_ID":"1988-091B","EPOCH":"2026-03-05T19:09:20.611872","MEAN_MOTION":1.00259845,"ECCENTRICITY":0.00441837,"INCLINATION":12.6797,"RA_OF_ASC_NODE":341.6841,"ARG_OF_PERICENTER":353.3967,"MEAN_ANOMALY":66.2018,"EPHEMERIS_TYPE":0,"CLASSIFICATION_TYPE":"U","NORAD_CAT_ID":19548,"ELEMENT_SET_NO":999,"REV_AT_EPOCH":12435,"BSTAR":0,"MEAN_MOTION_DOT":-3.03e-6,"MEAN_MOTION_DDOT":0},{"OBJECT_NAME":"HST","OBJECT_ID":"1990-037B","EPOCH":"2026-03-06T02:13:50.589696","MEAN_MOTION":15.2941463,"ECCENTRICITY":0.00017959,"INCLINATION":28.4707,"RA_OF_ASC_NODE":64.5335,"ARG_OF_PERICENTER":90.2676,"MEAN_ANOMALY":269.8125,"EPHEMERIS_TYPE":0,"CLASSIFICATION_TYPE":"U","NORAD_CAT_ID":20580,"ELEMENT_SET_NO":999,"REV_AT_EPOCH":77276,"BSTAR":0.00027789618,"MEAN_MOTION_DOT":8.39e-5,"MEAN_MOTION_DDOT":0},{"OBJECT_NAME":"TDRS 5","OBJECT_ID":"1991-054B","EPOCH":"2026-03-05T16:45:56.913696","MEAN_MOTION":1.00267149,"ECCENTRICITY":0.00106311,"INCLINATION":14.0839,"RA_OF_ASC_NODE":354.5436,"ARG_OF_PERICENTER":277.9523,"MEAN_ANOMALY":334.8614,"EPHEMERIS_TYPE":0,"CLASSIFICATION_TYPE":"U","NORAD_CAT_ID":21639,"ELEMENT_SET_NO":999,"REV_AT_EPOCH":12667,"BSTAR":0,"MEAN_MOTION_DOT":8.0e-7,"MEAN_MOTION_DDOT":0},{"OBJECT_NAME":"TDRS 6","OBJECT_ID":"1993-003B","EPOCH":"2026-03-06T05:48:03.284352","MEAN_MOTION":1.00278079,"ECCENTRICITY":0.00054994,"INCLINATION":14.1809,"RA_OF_ASC_NODE":357.8214,"ARG_OF_PERICENTER":200.3379,"MEAN_ANOMALY":6.8844,"EPHEMERIS_TYPE":0,"CLASSIFICATION_TYPE":"U","NORAD_CAT_ID":22314,"ELEMENT_SET_NO":999,"REV_AT_EPOCH":12137,"BSTAR":0,"MEAN_MOTION_DOT":-2.98e-6,"MEAN_MOTION_DDOT":0},{"OBJECT_NAME":"TDRS 7","OBJECT_ID":"1995-035B","EPOCH":"2026-03-05T16:49:48.614304","MEAN_MOTION":1.00276158,"ECCENTRICITY":0.0008223,"INCLINATION":13.42,"RA_OF_ASC_NODE":348.8997,"ARG_OF_PERICENTER":47.6107,"MEAN_ANOMALY":108.4062,"EPHEMERIS_TYPE":0,"CLASSIFICATION_TYPE":"U","NORAD_CAT_ID":23613,"ELEMENT_SET_NO":999,"REV_AT_EPOCH":11221,"BSTAR":0,"MEAN_MOTION_DOT":-2.43e-6,"MEAN_MOTION_DDOT":0},{"OBJECT_NAME":"ISS (ZARYA)","OBJECT_ID":"1998-067A","EPOCH":"2026-03-06T05:19:41.493792","MEAN_MOTION":15.48470661,"ECCENTRICITY":0.00081363,"INCLINATION":51.6317,"RA_OF_ASC_NODE":89.5003,"ARG_OF_PERICENTER":162.2758,"MEAN_ANOMALY":197.8515,"EPHEMERIS_TYPE":0,"CLASSIFICATION_TYPE":"U","NORAD_CAT_ID":25544,"ELEMENT_SET_NO":999,"REV_AT_EPOCH":55579,"BSTAR":0.00015844115,"MEAN_MOTION_DOT":8.136e-5,"MEAN_MOTION_DDOT":0},{"OBJECT_NAME":"TERRA","OBJECT_ID":"1999-068A","EPOCH":"2026-03-06T05:22:40.363392","MEAN_MOTION":14.61010573,"ECCENTRICITY":0.00024965,"INCLINATION":97.96,"RA_OF_ASC_NODE":118.7911,"ARG_OF_PERICENTER":159.7278,"MEAN_ANOMALY":270.0945,"EPHEMERIS_TYPE":0,"CLASSIFICATION_TYPE":"U","NORAD_CAT_ID":25994,"ELEMENT_SET_NO":999,"REV_AT_EPOCH":39457,"BSTAR":0.00013705483,"MEAN_MOTION_DOT":6.28e-6,"MEAN_MOTION_DDOT":0},{"OBJECT_NAME":"TDRS 8","OBJECT_ID":"2000-034A","EPOCH":"2026-03-05T21:14:51.305856","MEAN_MOTION":1.00276226,"ECCENTRICITY":0.00061468,"INCLINATION":12.5213,"RA_OF_ASC_NODE":32.1832,"ARG_OF_PERICENTER":308.7491,"MEAN_ANOMALY":226.1757,"EPHEMERIS_TYPE":0,"CLASSIFICATION_TYPE":"U","NORAD_CAT_ID":26388,"ELEMENT_SET_NO":999,"REV_AT_EPOCH":9414,"BSTAR":0,"MEAN_MOTION_DOT":-1.99e-6,"MEAN_MOTION_DDOT":0},{"OBJECT_NAME":"TIMED","OBJECT_ID":"2001-055B","EPOCH":"2026-03-06T03:59:25.623456","MEAN_MOTION":14.95007977,"ECCENTRICITY":0.00029989,"INCLINATION":74.066,"RA_OF_ASC_NODE":82.4121,"ARG_OF_PERICENTER":279.6089,"MEAN_ANOMALY":80.4756,"EPHEMERIS_TYPE":0,"CLASSIFICATION_TYPE":"U","NORAD_CAT_ID":26998,"ELEMENT_SET_NO":999,"REV_AT_EPOCH":31542,"BSTAR":0.00015515994,"MEAN_MOTION_DOT":1.658e-5,"MEAN_MOTION_DDOT":0},{"OBJECT_NAME":"AQUA","OBJECT_ID":"2002-022A","EPOCH":"2026-03-06T06:29:40.658208","MEAN_MOTION":14.61967232,"ECCENTRICITY":5.963e-5,"INCLINATION":98.4171,"RA_OF_ASC_NODE":32.5734,"ARG_OF_PERICENTER":64.3076,"MEAN_ANOMALY":39.4624,"EPHEMERIS_TYPE":0,"CLASSIFICATION_TYPE":"U","NORAD_CAT_ID":27424,"ELEMENT_SET_NO":999,"REV_AT_EPOCH":26823,"BSTAR":0.00030942619,"MEAN_MOTION_DOT":1.501e-5,"MEAN_MOTION_DDOT":0},{"OBJECT_NAME":"SORCE","OBJECT_ID":"2003-004A","EPOCH":"2026-03-06T05:51:38.024640","MEAN_MOTION":15.03066339,"ECCENTRICITY":0.00162665,"INCLINATION":39.9902,"RA_OF_ASC_NODE":128.7394,"ARG_OF_PERICENTER":28.8271,"MEAN_ANOMALY":331.3419,"EPHEMERIS_TYPE":0,"CLASSIFICATION_TYPE":"U","NORAD_CAT_ID":27651,"ELEMENT_SET_NO":999,"REV_AT_EPOCH":25640,"BSTAR":0.00032831041,"MEAN_MOTION_DOT":4.366e-5,"MEAN_MOTION_DDOT":0},{"OBJECT_NAME":"AURA","OBJECT_ID":"2004-026A","EPOCH":"2026-03-06T06:33:08.366400","MEAN_MOTION":14.61139632,"ECCENTRICITY":0.00010237,"INCLINATION":98.3307,"RA_OF_ASC_NODE":20.9538,"ARG_OF_PERICENTER":80.3158,"MEAN_ANOMALY":279.8158,"EPHEMERIS_TYPE":0,"CLASSIFICATION_TYPE":"U","NORAD_CAT_ID":28376,"ELEMENT_SET_NO":999,"REV_AT_EPOCH":15118,"BSTAR":0.00031324,"MEAN_MOTION_DOT":1.493e-5,"MEAN_MOTION_DDOT":0},{"OBJECT_NAME":"SWIFT","OBJECT_ID":"2004-047A","EPOCH":"2026-03-05T18:29:09.009888","MEAN_MOTION":15.58889158,"ECCENTRICITY":0.00032704,"INCLINATION":20.5529,"RA_OF_ASC_NODE":257.0201,"ARG_OF_PERICENTER":342.7398,"MEAN_ANOMALY":17.2934,"EPHEMERIS_TYPE":0,"CLASSIFICATION_TYPE":"U","NORAD_CAT_ID":28485,"ELEMENT_SET_NO":999,"REV_AT_EPOCH":17065,"BSTAR":0.00054948009,"MEAN_MOTION_DOT":0.00045464,"MEAN_MOTION_DDOT":0},{"OBJECT_NAME":"THEMIS A","OBJECT_ID":"2007-004A","EPOCH":"2026-03-05T02:54:24.672960","MEAN_MOTION":0.87846918,"ECCENTRICITY":0.84052001,"INCLINATION":6.7464,"RA_OF_ASC_NODE":120.1883,"ARG_OF_PERICENTER":177.4845,"MEAN_ANOMALY":195.779,"EPHEMERIS_TYPE":0,"CLASSIFICATION_TYPE":"U","NORAD_CAT_ID":30580,"ELEMENT_SET_NO":999,"REV_AT_EPOCH":4036,"BSTAR":-0.0050685078,"MEAN_MOTION_DOT":-1.99e-6,"MEAN_MOTION_DDOT":0},{"OBJECT_NAME":"THEMIS D","OBJECT_ID":"2007-004D","EPOCH":"2026-03-06T03:12:14.527008","MEAN_MOTION":0.87836061,"ECCENTRICITY":0.83578409,"INCLINATION":6.6237,"RA_OF_ASC_NODE":84.6439,"ARG_OF_PERICENTER":215.9554,"MEAN_ANOMALY":143.1881,"EPHEMERIS_TYPE":0,"CLASSIFICATION_TYPE":"U","NORAD_CAT_ID":30797,"ELEMENT_SET_NO":999,"REV_AT_EPOCH":4017,"BSTAR":0,"MEAN_MOTION_DOT":-2.81e-6,"MEAN_MOTION_DDOT":0},{"OBJECT_NAME":"THEMIS E","OBJECT_ID":"2007-004E","EPOCH":"2026-03-06T06:26:48.369696","MEAN_MOTION":0.87837796,"ECCENTRICITY":0.83616146,"INCLINATION":4.1501,"RA_OF_ASC_NODE":99.8014,"ARG_OF_PERICENTER":201.7628,"MEAN_ANOMALY":200.3081,"EPHEMERIS_TYPE":0,"CLASSIFICATION_TYPE":"U","NORAD_CAT_ID":30798,"ELEMENT_SET_NO":999,"REV_AT_EPOCH":6501,"BSTAR":0,"MEAN_MOTION_DOT":-2.81e-6,"MEAN_MOTION_DDOT":0},{"OBJECT_NAME":"FGRST (GLAST)","OBJECT_ID":"2008-029A","EPOCH":"2026-03-05T18:03:54.327168","MEAN_MOTION":15.23293595,"ECCENTRICITY":0.00082779,"INCLINATION":25.5812,"RA_OF_ASC_NODE":202.3523,"ARG_OF_PERICENTER":181.7392,"MEAN_ANOMALY":178.3118,"EPHEMERIS_TYPE":0,"CLASSIFICATION_TYPE":"U","NORAD_CAT_ID":33053,"ELEMENT_SET_NO":999,"REV_AT_EPOCH":98004,"BSTAR":0.00017920497,"MEAN_MOTION_DOT":4.713e-5,"MEAN_MOTION_DDOT":0}]
